[{"OBJECT_NAME":"ONEWEB-0627","OBJECT_ID":"2023-004AE","EPOCH":"2026-06-26T11:28:28.704864","MEAN_MOTION":13.17656838,"ECCENTRICITY":0.0002096,"INCLINATION":87.9135,"RA_OF_ASC_NODE":4.0258,"ARG_OF_PERICENTER":76.6375,"MEAN_ANOMALY":283.499,"EPHEMERIS_TYPE":0,"CLASSIFICATION_TYPE":"U","NORAD_CAT_ID":55168,"ELEMENT_SET_NO":999,"REV_AT_EPOCH":16880,"BSTAR":0.0027191,"MEAN_MOTION_DOT":1.069e-5,"MEAN_MOTION_DDOT":0},{"OBJECT_NAME":"ONEWEB-0628","OBJECT_ID":"2023-004AF","EPOCH":"2026-06-26T16:56:35.160000","MEAN_MOTION":13.12441228,"ECCENTRICITY":0.0002091,"INCLINATION":87.8952,"RA_OF_ASC_NODE":348.7596,"ARG_OF_PERICENTER":74.1807,"MEAN_ANOMALY":285.9552,"EPHEMERIS_TYPE":0,"CLASSIFICATION_TYPE":"U","NORAD_CAT_ID":55169,"ELEMENT_SET_NO":999,"REV_AT_EPOCH":16928,"BSTAR":0.0010143,"MEAN_MOTION_DOT":3.78e-6,"MEAN_MOTION_DDOT":0},{"OBJECT_NAME":"ONEWEB-0629","OBJECT_ID":"2023-004AG","EPOCH":"2026-06-26T18:10:38.788032","MEAN_MOTION":13.17649262,"ECCENTRICITY":0.0001751,"INCLINATION":87.9132,"RA_OF_ASC_NODE":3.966,"ARG_OF_PERICENTER":79.9618,"MEAN_ANOMALY":280.1711,"EPHEMERIS_TYPE":0,"CLASSIFICATION_TYPE":"U","NORAD_CAT_ID":55170,"ELEMENT_SET_NO":999,"REV_AT_EPOCH":16884,"BSTAR":0.00032258,"MEAN_MOTION_DOT":1.38e-6,"MEAN_MOTION_DDOT":0},{"OBJECT_NAME":"ONEWEB-0631","OBJECT_ID":"2023-004AH","EPOCH":"2026-06-26T15:53:10.506624","MEAN_MOTION":13.18686433,"ECCENTRICITY":0.0002358,"INCLINATION":87.9175,"RA_OF_ASC_NODE":333.5506,"ARG_OF_PERICENTER":98.1947,"MEAN_ANOMALY":261.9452,"EPHEMERIS_TYPE":0,"CLASSIFICATION_TYPE":"U","NORAD_CAT_ID":55171,"ELEMENT_SET_NO":999,"REV_AT_EPOCH":17092,"BSTAR":0.0001678,"MEAN_MOTION_DOT":7.9e-7,"MEAN_MOTION_DDOT":0},{"OBJECT_NAME":"ONEWEB-0709","OBJECT_ID":"2023-004AJ","EPOCH":"2026-06-26T06:48:27.379008","MEAN_MOTION":13.1141659,"ECCENTRICITY":0.000218,"INCLINATION":87.888,"RA_OF_ASC_NODE":19.2681,"ARG_OF_PERICENTER":111.1614,"MEAN_ANOMALY":248.9747,"EPHEMERIS_TYPE":0,"CLASSIFICATION_TYPE":"U","NORAD_CAT_ID":55172,"ELEMENT_SET_NO":999,"REV_AT_EPOCH":16706,"BSTAR":-0.0015406,"MEAN_MOTION_DOT":-5.33e-6,"MEAN_MOTION_DDOT":0},{"OBJECT_NAME":"ONEWEB-0710","OBJECT_ID":"2023-004AK","EPOCH":"2026-06-26T18:31:17.455584","MEAN_MOTION":13.17650582,"ECCENTRICITY":0.0002015,"INCLINATION":87.913,"RA_OF_ASC_NODE":3.9585,"ARG_OF_PERICENTER":86.9164,"MEAN_ANOMALY":273.2198,"EPHEMERIS_TYPE":0,"CLASSIFICATION_TYPE":"U","NORAD_CAT_ID":55173,"ELEMENT_SET_NO":999,"REV_AT_EPOCH":16884,"BSTAR":8.9803e-5,"MEAN_MOTION_DOT":4.8e-7,"MEAN_MOTION_DDOT":0},{"OBJECT_NAME":"ONEWEB-0711","OBJECT_ID":"2023-004AL","EPOCH":"2026-06-26T11:36:34.311744","MEAN_MOTION":13.11414352,"ECCENTRICITY":0.0002426,"INCLINATION":87.8881,"RA_OF_ASC_NODE":19.2156,"ARG_OF_PERICENTER":75.6006,"MEAN_ANOMALY":284.5391,"EPHEMERIS_TYPE":0,"CLASSIFICATION_TYPE":"U","NORAD_CAT_ID":55174,"ELEMENT_SET_NO":999,"REV_AT_EPOCH":16705,"BSTAR":0.00094237,"MEAN_MOTION_DOT":3.47e-6,"MEAN_MOTION_DDOT":0},{"OBJECT_NAME":"ONEWEB-0713","OBJECT_ID":"2023-004AM","EPOCH":"2026-06-26T12:03:24.934752","MEAN_MOTION":13.11415838,"ECCENTRICITY":0.0002147,"INCLINATION":87.8883,"RA_OF_ASC_NODE":19.2136,"ARG_OF_PERICENTER":80.6218,"MEAN_ANOMALY":279.5153,"EPHEMERIS_TYPE":0,"CLASSIFICATION_TYPE":"U","NORAD_CAT_ID":55175,"ELEMENT_SET_NO":999,"REV_AT_EPOCH":16704,"BSTAR":-0.00092824,"MEAN_MOTION_DOT":-3.16e-6,"MEAN_MOTION_DDOT":0},{"OBJECT_NAME":"ONEWEB-0715","OBJECT_ID":"2023-004AN","EPOCH":"2026-06-26T13:45:57.126240","MEAN_MOTION":13.11414363,"ECCENTRICITY":0.0002312,"INCLINATION":87.8881,"RA_OF_ASC_NODE":19.2,"ARG_OF_PERICENTER":101.2563,"MEAN_ANOMALY":258.8825,"EPHEMERIS_TYPE":0,"CLASSIFICATION_TYPE":"U","NORAD_CAT_ID":55176,"ELEMENT_SET_NO":999,"REV_AT_EPOCH":16709,"BSTAR":-0.00043656,"MEAN_MOTION_DOT":-1.42e-6,"MEAN_MOTION_DDOT":0},{"OBJECT_NAME":"ONEWEB-0716","OBJECT_ID":"2023-004AP","EPOCH":"2026-06-26T18:21:34.157088","MEAN_MOTION":13.17650808,"ECCENTRICITY":0.0001634,"INCLINATION":87.9131,"RA_OF_ASC_NODE":3.9627,"ARG_OF_PERICENTER":91.3251,"MEAN_ANOMALY":268.8067,"EPHEMERIS_TYPE":0,"CLASSIFICATION_TYPE":"U","NORAD_CAT_ID":55177,"ELEMENT_SET_NO":999,"REV_AT_EPOCH":16884,"BSTAR":0.00014221,"MEAN_MOTION_DOT":6.8e-7,"MEAN_MOTION_DDOT":0},{"OBJECT_NAME":"ONEWEB-0717","OBJECT_ID":"2023-004AQ","EPOCH":"2026-06-26T17:57:17.312256","MEAN_MOTION":13.17649768,"ECCENTRICITY":0.0002404,"INCLINATION":87.9144,"RA_OF_ASC_NODE":3.9545,"ARG_OF_PERICENTER":84.1794,"MEAN_ANOMALY":275.9611,"EPHEMERIS_TYPE":0,"CLASSIFICATION_TYPE":"U","NORAD_CAT_ID":55178,"ELEMENT_SET_NO":999,"REV_AT_EPOCH":16889,"BSTAR":0.00011514,"MEAN_MOTION_DOT":5.8e-7,"MEAN_MOTION_DDOT":0},{"OBJECT_NAME":"ONEWEB-0719","OBJECT_ID":"2023-004AR","EPOCH":"2026-06-26T18:11:52.172736","MEAN_MOTION":13.17649977,"ECCENTRICITY":0.0001718,"INCLINATION":87.9142,"RA_OF_ASC_NODE":3.9329,"ARG_OF_PERICENTER":86.6804,"MEAN_ANOMALY":273.4524,"EPHEMERIS_TYPE":0,"CLASSIFICATION_TYPE":"U","NORAD_CAT_ID":55179,"ELEMENT_SET_NO":999,"REV_AT_EPOCH":16884,"BSTAR":0.0001906,"MEAN_MOTION_DOT":8.7e-7,"MEAN_MOTION_DDOT":0},{"OBJECT_NAME":"ONEWEB-0530","OBJECT_ID":"2023-029A","EPOCH":"2026-06-26T17:03:54.476352","MEAN_MOTION":13.20771754,"ECCENTRICITY":0.0002143,"INCLINATION":87.9185,"RA_OF_ASC_NODE":272.5703,"ARG_OF_PERICENTER":87.927,"MEAN_ANOMALY":272.2109,"EPHEMERIS_TYPE":0,"CLASSIFICATION_TYPE":"U","NORAD_CAT_ID":55796,"ELEMENT_SET_NO":999,"REV_AT_EPOCH":16240,"BSTAR":-0.00011929,"MEAN_MOTION_DOT":-3.6e-7,"MEAN_MOTION_DDOT":0},{"OBJECT_NAME":"ONEWEB-0534","OBJECT_ID":"2023-029B","EPOCH":"2026-06-26T16:46:55.553376","MEAN_MOTION":13.20772138,"ECCENTRICITY":0.0001899,"INCLINATION":87.9189,"RA_OF_ASC_NODE":272.5735,"ARG_OF_PERICENTER":101.9679,"MEAN_ANOMALY":258.1667,"EPHEMERIS_TYPE":0,"CLASSIFICATION_TYPE":"U","NORAD_CAT_ID":55797,"ELEMENT_SET_NO":999,"REV_AT_EPOCH":16240,"BSTAR":-7.1783e-5,"MEAN_MOTION_DOT":-1.6e-7,"MEAN_MOTION_DDOT":0},{"OBJECT_NAME":"ONEWEB-0556","OBJECT_ID":"2023-029C","EPOCH":"2026-06-26T16:56:35.752704","MEAN_MOTION":13.20774145,"ECCENTRICITY":0.0001275,"INCLINATION":87.9184,"RA_OF_ASC_NODE":272.5711,"ARG_OF_PERICENTER":83.4641,"MEAN_ANOMALY":276.6637,"EPHEMERIS_TYPE":0,"CLASSIFICATION_TYPE":"U","NORAD_CAT_ID":55798,"ELEMENT_SET_NO":999,"REV_AT_EPOCH":16240,"BSTAR":-0.00011972,"MEAN_MOTION_DOT":-3.6e-7,"MEAN_MOTION_DDOT":0},{"OBJECT_NAME":"ONEWEB-0562","OBJECT_ID":"2023-029D","EPOCH":"2026-06-26T16:37:14.083104","MEAN_MOTION":13.20770736,"ECCENTRICITY":0.0001976,"INCLINATION":87.9189,"RA_OF_ASC_NODE":272.5552,"ARG_OF_PERICENTER":76.3563,"MEAN_ANOMALY":283.779,"EPHEMERIS_TYPE":0,"CLASSIFICATION_TYPE":"U","NORAD_CAT_ID":55799,"ELEMENT_SET_NO":999,"REV_AT_EPOCH":16240,"BSTAR":3.0463e-5,"MEAN_MOTION_DOT":2.5e-7,"MEAN_MOTION_DDOT":0},{"OBJECT_NAME":"ONEWEB-0563","OBJECT_ID":"2023-029E","EPOCH":"2026-06-26T16:29:57.459840","MEAN_MOTION":13.20773257,"ECCENTRICITY":0.0001857,"INCLINATION":87.9194,"RA_OF_ASC_NODE":272.5869,"ARG_OF_PERICENTER":106.0626,"MEAN_ANOMALY":254.0712,"EPHEMERIS_TYPE":0,"CLASSIFICATION_TYPE":"U","NORAD_CAT_ID":55800,"ELEMENT_SET_NO":999,"REV_AT_EPOCH":16239,"BSTAR":0.00010446,"MEAN_MOTION_DOT":5.5e-7,"MEAN_MOTION_DDOT":0}]
