ONEWEB-0627             
1 55168U 23004AE  26177.47811001  .00001069  00000+0  27191-2 0  9996
2 55168  87.9135   4.0258 0002096  76.6375 283.4990 13.17656838168806
ONEWEB-0628             
1 55169U 23004AF  26177.70596250  .00000378  00000+0  10143-2 0  9990
2 55169  87.8952 348.7596 0002091  74.1807 285.9552 13.12441228169288
ONEWEB-0629             
1 55170U 23004AG  26177.75739338  .00000138  00000+0  32258-3 0  9999
2 55170  87.9132   3.9660 0001751  79.9618 280.1711 13.17649262168846
ONEWEB-0631             
1 55171U 23004AH  26177.66192716  .00000079  00000+0  16780-3 0  9999
2 55171  87.9175 333.5506 0002358  98.1947 261.9452 13.18686433170920
ONEWEB-0709             
1 55172U 23004AJ  26177.28365022 -.00000533  00000+0 -15406-2 0  9990
2 55172  87.8880  19.2681 0002180 111.1614 248.9747 13.11416590167066
ONEWEB-0710             
1 55173U 23004AK  26177.77172981  .00000048  00000+0  89803-4 0  9998
2 55173  87.9130   3.9585 0002015  86.9164 273.2198 13.17650582168840
ONEWEB-0711             
1 55174U 23004AL  26177.48373046  .00000347  00000+0  94237-3 0  9990
2 55174  87.8881  19.2156 0002426  75.6006 284.5391 13.11414352167052
ONEWEB-0713             
1 55175U 23004AM  26177.50237193 -.00000316  00000+0 -92824-3 0  9994
2 55175  87.8883  19.2136 0002147  80.6218 279.5153 13.11415838167043
ONEWEB-0715             
1 55176U 23004AN  26177.57357785 -.00000142  00000+0 -43656-3 0  9998
2 55176  87.8881  19.2000 0002312 101.2563 258.8825 13.11414363167092
ONEWEB-0716             
1 55177U 23004AP  26177.76497867  .00000068  00000+0  14221-3 0  9997
2 55177  87.9131   3.9627 0001634  91.3251 268.8067 13.17650808168841
ONEWEB-0717             
1 55178U 23004AQ  26177.74811704  .00000058  00000+0  11514-3 0  9997
2 55178  87.9144   3.9545 0002404  84.1794 275.9611 13.17649768168895
ONEWEB-0719             
1 55179U 23004AR  26177.75824274  .00000087  00000+0  19060-3 0  9991
2 55179  87.9142   3.9329 0001718  86.6804 273.4524 13.17649977168843
ONEWEB-0530             
1 55796U 23029A   26177.71104718 -.00000036  00000+0 -11929-3 0  9995
2 55796  87.9185 272.5703 0002143  87.9270 272.2109 13.20771754162404
ONEWEB-0534             
1 55797U 23029B   26177.69925409 -.00000016  00000+0 -71783-4 0  9994
2 55797  87.9189 272.5735 0001899 101.9679 258.1667 13.20772138162400
ONEWEB-0556             
1 55798U 23029C   26177.70596936 -.00000036  00000+0 -11972-3 0  9991
2 55798  87.9184 272.5711 0001275  83.4641 276.6637 13.20774145162403
ONEWEB-0562             
1 55799U 23029D   26177.69252411  .00000025  00000+0  30463-4 0  9990
2 55799  87.9189 272.5552 0001976  76.3563 283.7790 13.20770736162405
ONEWEB-0563             
1 55800U 23029E   26177.68747060  .00000055  00000+0  10446-3 0  9992
2 55800  87.9194 272.5869 0001857 106.0626 254.0712 13.20773257162398
